[{"OBJECT_NAME":"STARLINK-3257","OBJECT_ID":"2021-125AZ","EPOCH":"2026-03-09T22:54:59.277600","MEAN_MOTION":15.08839458,"ECCENTRICITY":0.00014259,"INCLINATION":53.2162,"RA_OF_ASC_NODE":238.0174,"ARG_OF_PERICENTER":89.8906,"MEAN_ANOMALY":270.225,"EPHEMERIS_TYPE":0,"CLASSIFICATION_TYPE":"U","NORAD_CAT_ID":50203,"ELEMENT_SET_NO":999,"REV_AT_EPOCH":23683,"BSTAR":-1.6284709e-5,"MEAN_MOTION_DOT":-5.47e-6,"MEAN_MOTION_DDOT":0},{"OBJECT_NAME":"OBJECT R","OBJECT_ID":"2021-022R","EPOCH":"2026-03-09T22:54:37.456416","MEAN_MOTION":15.08912229,"ECCENTRICITY":0.00182027,"INCLINATION":97.3728,"RA_OF_ASC_NODE":308.5333,"ARG_OF_PERICENTER":149.1845,"MEAN_ANOMALY":211.0456,"EPHEMERIS_TYPE":0,"CLASSIFICATION_TYPE":"U","NORAD_CAT_ID":47947,"ELEMENT_SET_NO":999,"REV_AT_EPOCH":27304,"BSTAR":2.1057411e-5,"MEAN_MOTION_DOT":2.72e-6,"MEAN_MOTION_DDOT":0}]
